GLOBALSTAR M023         
1 25621U 99004A   25292.67095514 -.00000119  00000+0 -86408-4 0  9997
2 25621  52.0130  34.3816 0010325  45.2343 101.9914 12.62507767231459
GLOBALSTAR M040         
1 25622U 99004B   25292.77801920 -.00000046  00000+0  32321-3 0  9997
2 25622  51.9937  38.3940 0000208 347.3191 179.0841 12.62019840230983
GLOBALSTAR M036         
1 25623U 99004C   25293.20556400 -.00000038  00000+0  64917-3 0  9994
2 25623  51.9960 270.7967 0010590 291.2480  82.1002 11.86612125193828
GLOBALSTAR M038         
1 25624U 99004D   25293.22714831 -.00000067  00000+0  22716-3 0  9994
2 25624  51.9973  71.4654 0001103 337.1081  87.4619 12.32534198217799
GLOBALSTAR M022         
1 25649U 99012A   25293.26068907 -.00000051  00000+0  42846-3 0  9999
2 25649  52.0049 310.8945 0002825  62.3247  19.2748 12.02504604191421
GLOBALSTAR M041         
1 25650U 99012B   25293.09040942 -.00000125  00000+0 -50717-3 0  9990
2 25650  52.0008 196.6152 0000883 178.1958 181.8882 11.96681165193231
GLOBALSTAR M046         
1 25651U 99012C   25293.21280294 -.00000006  00000+0  91367-3 0  9994
2 25651  52.0050 256.5938 0002037 129.5933 243.8321 12.09415219198796
GLOBALSTAR M037         
1 25652U 99012D   25293.05498691 -.00000062  00000+0  23533-3 0  9991
2 25652  51.9989 163.7877 0002859  93.8133  71.4119 12.62452825227048
